[{"OBJECT_NAME":"STARLINK-32809","OBJECT_ID":"2025-019W","EPOCH":"2026-03-09T02:18:04.401792","MEAN_MOTION":15.27604303,"ECCENTRICITY":8.499e-5,"INCLINATION":42.9999,"RA_OF_ASC_NODE":92.0262,"ARG_OF_PERICENTER":278.1182,"MEAN_ANOMALY":81.9574,"EPHEMERIS_TYPE":0,"CLASSIFICATION_TYPE":"U","NORAD_CAT_ID":62849,"ELEMENT_SET_NO":999,"REV_AT_EPOCH":6216,"BSTAR":0.0010160125,"MEAN_MOTION_DOT":0.00027823,"MEAN_MOTION_DDOT":0},{"OBJECT_NAME":"COSMOS 886 DEB","OBJECT_ID":"1976-126M","EPOCH":"2026-03-09T22:12:52.532928","MEAN_MOTION":13.82653067,"ECCENTRICITY":0.06461963,"INCLINATION":65.7873,"RA_OF_ASC_NODE":333.1273,"ARG_OF_PERICENTER":140.6509,"MEAN_ANOMALY":224.3408,"EPHEMERIS_TYPE":0,"CLASSIFICATION_TYPE":"U","NORAD_CAT_ID":9655,"ELEMENT_SET_NO":999,"REV_AT_EPOCH":37570,"BSTAR":0.00072487394,"MEAN_MOTION_DOT":4.06e-5,"MEAN_MOTION_DDOT":0}]
